*******************************************************************************
JPL/HORIZONS               387 Aquitania (A894 EC)         2023-Sep-04 11:06:03
Rec #:     387 (+COV) Soln.date: 2023-Aug-23_14:19:01   # obs: 4685 (1894-2023)
 
IAU76/J2000 helio. ecliptic osc. elements (au, days, deg., period=Julian yrs):
 
  EPOCH=  2457447.5 ! 2016-Feb-29.00 (TDB)         Residual RMS= .29239
   EC= .2362090140533726   QR= 2.092475368139565   TP= 2458133.8900633487
   OM= 128.3010004415291   W=  157.2192456324139   IN= 18.13009403890652
   A= 2.739591598539478    MA= 210.8077295919599   ADIST= 3.386707828939391
   PER= 4.53458            N= .217357853           ANGMOM= .027666713
   DAN= 3.30693            DDN= 2.12414            L= 286.5432777
   B= 6.9203276            MOID= 1.08630002        TP= 2018-Jan-15.3900633487
 
Asteroid physical parameters (km, seconds, rotational period in hours):
   GM= n.a.                RAD= 50.255             ROTPER= 24.144
   H= 7.57                 G= .150                 B-V= .881
                           ALBEDO= .190            STYP= L

ASTEROID comments: 
1: soln ref.= JPL#133, OCC=0
2: source=ORB
*******************************************************************************


*******************************************************************************
Ephemeris / API_USER Mon Sep  4 11:06:03 2023 Pasadena, USA      / Horizons
*******************************************************************************
Target body name: 387 Aquitania (A894 EC)         {source: JPL#133}
Center body name: Solar System Barycenter (0)     {source: DE441}
Center-site name: BODY CENTER
*******************************************************************************
Start time      : A.D. 2023-Aug-12 00:00:00.0000 TDB
Stop  time      : A.D. 2023-Aug-13 00:00:00.0000 TDB
Step-size       : 2880 minutes
*******************************************************************************
Center geodetic : 0.0, 0.0, 0.0                   {E-lon(deg),Lat(deg),Alt(km)}
Center cylindric: 0.0, 0.0, 0.0                   {E-lon(deg),Dxy(km),Dz(km)}
Center radii    : (undefined)
Small perturbers: Yes                             {source: SB441-N16}
Output units    : KM-S
Calendar mode   : Mixed Julian/Gregorian
Output type     : GEOMETRIC cartesian states
Output format   : 2 (position and velocity)
Reference frame : Ecliptic of J2000.0
*******************************************************************************
Initial IAU76/J2000 heliocentric ecliptic osculating elements (au, days, deg.):
  EPOCH=  2457447.5 ! 2016-Feb-29.00 (TDB)         Residual RMS= .29239        
   EC= .2362090140533726   QR= 2.092475368139565   TP= 2458133.8900633487      
   OM= 128.3010004415291   W=  157.2192456324139   IN= 18.13009403890652       
  Equivalent ICRF heliocentric cartesian coordinates (au, au/d):
   X=-1.930769612117155E+00  Y= 2.505153952132204E+00  Z= 1.028017679340738E+00
  VX=-5.964164160442362E-03 VY=-5.855091445509222E-03 VZ= 2.942220938960733E-04
Asteroid physical parameters (km, seconds, rotational period in hours):        
   GM= n.a.                RAD= 50.255             ROTPER= 24.144              
   H= 7.57                 G= .150                 B-V= .881                   
                           ALBEDO= .190            STYP= L                     
*******************************************************************************
JDTDB
   X     Y     Z
   VX    VY    VZ
*******************************************************************************
$$SOE
2460168.500000000 = A.D. 2023-Aug-12 00:00:00.0000 TDB 
 X = 3.290878249422139E+08 Y = 2.212149883432029E+08 Z =-1.296521981060245E+08
 VX=-6.370663427505531E+00 VY= 1.634266501817076E+01 VZ=-1.665045475639222E+00
$$EOE
*******************************************************************************
 
TIME

  Barycentric Dynamical Time ("TDB" or T_eph) output was requested. This
continuous coordinate time is equivalent to the relativistic proper time
of a clock at rest in a reference frame co-moving with the solar system
barycenter but outside the system's gravity well. It is the independent
variable in the solar system relativistic equations of motion.

  TDB runs at a uniform rate of one SI second per second and is independent
of irregularities in Earth's rotation.
 
CALENDAR SYSTEM

  Mixed calendar mode was active such that calendar dates after AD 1582-Oct-15
(if any) are in the modern Gregorian system. Dates prior to 1582-Oct-5 (if any)
are in the Julian calendar system, which is automatically extended for dates
prior to its adoption on 45-Jan-1 BC.  The Julian calendar is useful for
matching historical dates. The Gregorian calendar more accurately corresponds
to the Earth's orbital motion and seasons. A "Gregorian-only" calendar mode is
available if such physical events are the primary interest.

REFERENCE FRAME AND COORDINATES

  Ecliptic at the standard reference epoch

    Reference epoch: J2000.0
    X-Y plane: adopted Earth orbital plane at the reference epoch
               Note: IAU76 obliquity of 84381.448 arcseconds wrt ICRF X-Y plane
    X-axis   : ICRF
    Z-axis   : perpendicular to the X-Y plane in the directional (+ or -) sense
               of Earth's north pole at the reference epoch.

  Symbol meaning:

    JDTDB    Julian Day Number, Barycentric Dynamical Time
      X      X-component of position vector (km)
      Y      Y-component of position vector (km)
      Z      Z-component of position vector (km)
      VX     X-component of velocity vector (km/sec)                           
      VY     Y-component of velocity vector (km/sec)                           
      VZ     Z-component of velocity vector (km/sec)                           

ABERRATIONS AND CORRECTIONS

 Geometric state vectors have NO corrections or aberrations applied.

Computations by ...

    Solar System Dynamics Group, Horizons On-Line Ephemeris System
    4800 Oak Grove Drive, Jet Propulsion Laboratory
    Pasadena, CA  91109   USA

    General site: https://ssd.jpl.nasa.gov/
    Mailing list: https://ssd.jpl.nasa.gov/email_list.html
    System news : https://ssd.jpl.nasa.gov/horizons/news.html
    User Guide  : https://ssd.jpl.nasa.gov/horizons/manual.html
    Connect     : browser        https://ssd.jpl.nasa.gov/horizons/app.html#/x
                  API            https://ssd-api.jpl.nasa.gov/doc/horizons.html
                  command-line   telnet ssd.jpl.nasa.gov 6775
                  e-mail/batch   https://ssd.jpl.nasa.gov/ftp/ssd/hrzn_batch.txt
                  scripts        https://ssd.jpl.nasa.gov/ftp/ssd/SCRIPTS
    Author      : Jon.D.Giorgini@jpl.nasa.gov
*******************************************************************************
